[{"OBJECT_NAME":"STARLINK-5939","OBJECT_ID":"2023-042AF","EPOCH":"2026-03-09T22:00:01.999584","MEAN_MOTION":15.09474059,"ECCENTRICITY":0.00010956,"INCLINATION":42.9997,"RA_OF_ASC_NODE":42.126,"ARG_OF_PERICENTER":263.4859,"MEAN_ANOMALY":18.7345,"EPHEMERIS_TYPE":0,"CLASSIFICATION_TYPE":"U","NORAD_CAT_ID":56015,"ELEMENT_SET_NO":999,"REV_AT_EPOCH":567,"BSTAR":0.0038089578,"MEAN_MOTION_DOT":0.00062387,"MEAN_MOTION_DDOT":0},{"OBJECT_NAME":"FENGYUN 1C DEB","OBJECT_ID":"1999-025BNW","EPOCH":"2026-03-06T10:01:07.743936","MEAN_MOTION":15.11996262,"ECCENTRICITY":0.00143439,"INCLINATION":98.7438,"RA_OF_ASC_NODE":239.2093,"ARG_OF_PERICENTER":346.0612,"MEAN_ANOMALY":44.2284,"EPHEMERIS_TYPE":0,"CLASSIFICATION_TYPE":"U","NORAD_CAT_ID":31288,"ELEMENT_SET_NO":999,"REV_AT_EPOCH":98814,"BSTAR":0.0072973407,"MEAN_MOTION_DOT":0.00127645,"MEAN_MOTION_DDOT":0}]
